OBJECT_NAME,OBJECT_ID,EPOCH,MEAN_MOTION,ECCENTRICITY,INCLINATION,RA_OF_ASC_NODE,ARG_OF_PERICENTER,MEAN_ANOMALY,EPHEMERIS_TYPE,CLASSIFICATION_TYPE,NORAD_CAT_ID,ELEMENT_SET_NO,REV_AT_EPOCH,BSTAR,MEAN_MOTION_DOT,MEAN_MOTION_DDOT
GAOFEN-11 01,2018-063A,2026-06-10T06:55:35.986080,15.55090188,.00039128,97.1296,228.1883,23.4863,336.6570,0,U,43585,999,43927,.23852474E-3,.1596E-3,0
ICESAT-2,2018-070A,2026-06-10T03:34:08.224320,15.28292726,.00053843,92.0066,289.0785,115.4722,244.7085,0,U,43613,999,43138,.33537115E-3,.9244E-4,0
HYSIS,2018-096A,2026-06-10T07:25:15.786336,14.78682106,.00017387,97.9838,228.1110,110.5566,249.5832,0,U,43719,999,40640,.1261892E-3,.873E-5,0
KAZSTSAT,2018-099AB,2026-06-10T02:13:06.385728,14.99845978,.00080178,97.4264,193.3436,88.2317,271.9826,0,U,43783,999,41024,.1010414E-3,.1196E-4,0
SAUDISAT 5A,2018-102A,2026-06-10T06:55:45.071040,15.27976378,.00105247,97.3073,223.0026,150.5871,209.5963,0,U,43831,999,41462,.18681024E-3,.5033E-4,0
SAUDISAT 5B,2018-102C,2026-06-10T07:24:34.063776,15.28236974,.00111717,97.3180,226.0795,153.0970,207.0851,0,U,43833,999,41474,.17808486E-3,.4834E-4,0
GAOFEN-10R,2019-066A,2026-06-10T06:31:33.073248,14.83045488,.00062134,98.0495,114.8008,146.6608,213.4998,0,U,44622,999,36135,.13041862E-3,.1006E-4,0
CARTOSAT-3,2019-081A,2026-06-10T07:22:48.654048,15.19233192,.00125392,97.4308,223.2848,171.4674,188.6776,0,U,44804,999,36242,.15505486E-3,.3204E-4,0
GAOFEN-12 01,2019-082A,2026-06-10T07:42:07.012800,14.80452902,.00024468,97.8107,167.8816,78.1652,281.9835,0,U,44819,999,35307,.51265645E-4,.341E-5,0
CSG-1,2019-092A,2026-06-10T07:12:24.418368,14.82159140,.00014341,97.8887,345.0027,90.8587,269.2790,0,U,44873,999,35045,.53357675E-4,.373E-5,0
NEMO-HD,2020-061F,2026-06-10T07:51:01.808064,15.44456599,.00025139,97.1927,223.3495,88.4599,271.6938,0,U,46277,999,32092,.22588379E-3,.10371E-3,0
SENTINEL-6A,2020-086A,2026-06-10T05:09:18.861696,12.80929852,.00079489,66.0387,149.5341,270.2694,89.7410,0,U,46984,999,25943,.1468133E-3,-.27E-6,0
CAS500-1,2021-022A,2026-06-10T06:47:40.012800,15.20139172,.00044598,97.3911,56.6760,333.7149,26.3859,0,U,47932,999,28971,.67776352E-4,.1398E-4,0
GAOFEN-12 02,2021-026A,2026-06-10T06:19:38.794944,14.80290705,.00033628,97.9920,159.4726,252.3299,107.7546,0,U,48079,999,28073,.49198798E-4,.322E-5,0
PLEIADES NEO 3,2021-034A,2026-06-10T07:08:07.347264,14.81672495,.00013839,97.8925,236.1631,89.3219,270.8153,0,U,48268,999,27663,.14186403E-3,.1064E-4,0
PLEIADES NEO 4,2021-073E,2026-06-08T23:31:49.386144,14.81666705,.00013962,97.8928,234.8608,84.4017,275.7355,0,U,49070,999,26015,.18495191E-3,.1403E-4,0
LANDSAT 9,2021-088A,2026-06-10T04:36:43.137216,14.57105845,.00014617,98.2279,231.4539,88.0014,272.1352,0,U,49260,999,24998,.67434789E-4,.258E-5,0
CSG-2,2022-008A,2026-06-10T06:23:47.218272,14.82150849,.00014132,97.8891,344.9647,86.5874,273.5501,0,U,51444,999,23556,.48374315E-4,.333E-5,0
GAOFEN-12 03,2022-069A,2026-06-10T07:00:55.321344,14.80021954,.00017533,97.8287,49.3359,108.1703,251.9701,0,U,52912,999,21359,.40405983E-4,.255E-5,0
SWOT,2022-173A,2026-06-10T06:31:01.812864,14.00168711,.00002374,77.6111,44.6462,96.9734,263.1444,0,U,54754,999,17818,.55921525E-4,.8E-6,0
GAOFEN-12 04,2023-123A,2026-06-10T07:26:14.822592,14.80215411,.00017916,97.9126,79.4263,86.3275,273.8141,0,U,57654,999,15161,.11987375E-3,.86E-5,0
PARS 1,2024-039Q,2026-06-10T06:11:22.281792,15.45581188,.00110457,97.4817,141.9600,132.1983,228.0206,0,U,59065,999,12757,.2181645E-3,.10422E-3,0
RESURS-P 4,2024-061A,2026-06-10T06:35:43.869120,15.32091946,.00016355,97.2745,109.2940,131.9716,228.1666,0,U,59371,999,12270,.92491051E-4,.2789E-4,0
LEGION 1,2024-081A,2026-06-10T05:36:10.467072,15.16618717,.00101625,97.5017,239.1648,40.5261,319.6727,0,U,59625,999,11648,.19140482E-3,.3678E-4,0
LEGION 2,2024-081B,2026-06-10T06:19:12.504288,15.16598439,.00114554,97.5017,239.2920,8.5082,351.6343,0,U,59626,999,11649,.15229052E-3,.2911E-4,0
ALOS-4 (DAICHI-4),2024-123A,2026-06-10T06:14:20.755680,14.79472152,.00016284,97.9242,258.5308,97.3979,262.7418,0,U,60182,999,10485,.17645934E-3,.1267E-4,0
LEGION 3,2024-146A,2026-06-10T05:05:24.993312,15.15986784,.00070039,45.0015,67.9616,126.5549,233.5975,0,U,60452,999,10096,.22061128E-3,.4047E-4,0
LEGION 4,2024-146B,2026-06-10T06:44:40.973856,15.15982279,.00141072,45.0003,159.5030,272.4112,87.5151,0,U,60453,999,9982,.15350566E-3,.2737E-4,0
SENTINEL-2C,2024-157A,2026-06-10T04:18:31.790304,14.30815900,.00011417,98.5691,236.0605,79.7368,280.3944,0,U,60989,999,9198,.45712518E-4,.76E-6,0
IONOSFERA-M 1,2024-199A,2026-06-10T07:14:39.641280,14.22753010,.0001741,98.7182,34.5465,119.4750,240.6602,0,U,61735,999,12672,.41978627E-4,.5E-6,0
