GAOFEN-11 01            
1 43585U 18063A   26161.28861095  .00015960  00000+0  23852-3 0  9991
2 43585  97.1296 228.1883 0003912  23.4863 336.6570 15.55090188439271
ICESAT-2                
1 43613U 18070A   26161.14870630  .00009244  00000+0  33537-3 0  9990
2 43613  92.0066 289.0785 0005384 115.4722 244.7085 15.28292726431386
HYSIS                   
1 43719U 18096A   26161.30921049  .00000873  00000+0  12619-3 0  9991
2 43719  97.9838 228.1110 0001738 110.5566 249.5832 14.78682106406408
KAZSTSAT                
1 43783U 18099AB  26161.09243502  .00001196  00000+0  10104-3 0  9998
2 43783  97.4264 193.3436 0008017  88.2317 271.9826 14.99845978410243
SAUDISAT 5A             
1 43831U 18102A   26161.28871610  .00005033  00000+0  18681-3 0  9997
2 43831  97.3073 223.0026 0010524 150.5871 209.5963 15.27976378414620
SAUDISAT 5B             
1 43833U 18102C   26161.30872759  .00004834  00000+0  17808-3 0  9995
2 43833  97.3180 226.0795 0011171 153.0970 207.0851 15.28236974414748
GAOFEN-10R              
1 44622U 19066A   26161.27191057  .00001006  00000+0  13042-3 0  9997
2 44622  98.0495 114.8008 0006213 146.6608 213.4998 14.83045488361359
CARTOSAT-3              
1 44804U 19081A   26161.30750757  .00003204  00000+0  15505-3 0  9996
2 44804  97.4308 223.2848 0012539 171.4674 188.6776 15.19233192362428
GAOFEN-12 01            
1 44819U 19082A   26161.32091450  .00000341  00000+0  51266-4 0  9997
2 44819  97.8107 167.8816 0002446  78.1652 281.9835 14.80452902353071
CSG-1                   
1 44873U 19092A   26161.30028262  .00000373  00000+0  53358-4 0  9996
2 44873  97.8887 345.0027 0001434  90.8587 269.2790 14.82159140350452
NEMO-HD                 
1 46277U 20061F   26161.32710426  .00010371  00000+0  22588-3 0  9995
2 46277  97.1927 223.3495 0002513  88.4599 271.6938 15.44456599320929
SENTINEL-6A             
1 46984U 20086A   26161.21480164 -.00000027  00000+0  14681-3 0  9991
2 46984  66.0387 149.5341 0007948 270.2694  89.7410 12.80929852259436
CAS500-1                
1 47932U 21022A   26161.28310200  .00001398  00000+0  67776-4 0  9991
2 47932  97.3911  56.6760 0004459 333.7149  26.3859 15.20139172289710
GAOFEN-12 02            
1 48079U 21026A   26161.26364346  .00000322  00000+0  49199-4 0  9991
2 48079  97.9920 159.4726 0003362 252.3299 107.7546 14.80290705280732
PLEIADES NEO 3          
1 48268U 21034A   26161.29730726  .00001064  00000+0  14186-3 0  9993
2 48268  97.8925 236.1631 0001383  89.3219 270.8153 14.81672495276636
PLEIADES NEO 4          
1 49070U 21073E   26159.98043271  .00001403  00000+0  18495-3 0  9997
2 49070  97.8928 234.8608 0001396  84.4017 275.7355 14.81666705260151
LANDSAT 9               
1 49260U 21088A   26161.19216594  .00000258  00000+0  67435-4 0  9996
2 49260  98.2279 231.4539 0001461  88.0014 272.1352 14.57105845249984
CSG-2                   
1 51444U 22008A   26161.26651873  .00000333  00000+0  48374-4 0  9992
2 51444  97.8891 344.9647 0001413  86.5874 273.5501 14.82150849235562
GAOFEN-12 03            
1 52912U 22069A   26161.29230696  .00000255  00000+0  40406-4 0  9990
2 52912  97.8287  49.3359 0001753 108.1703 251.9701 14.80021954213590
SWOT                    
1 54754U 22173A   26161.27154876  .00000080  00000+0  55922-4 0  9990
2 54754  77.6111  44.6462 0000237  96.9734 263.1444 14.00168711178184
GAOFEN-12 04            
1 57654U 23123A   26161.30989378  .00000860  00000+0  11987-3 0  9993
2 57654  97.9126  79.4263 0001791  86.3275 273.8141 14.80215411151610
PARS 1                  
1 59065U 24039Q   26161.25789678  .00010422  00000+0  21816-3 0  9990
2 59065  97.4817 141.9600 0011045 132.1983 228.0206 15.45581188127570
RESURS-P 4              
1 59371U 24061A   26161.27481330  .00002789  00000+0  92491-4 0  9996
2 59371  97.2745 109.2940 0001635 131.9716 228.1666 15.32091946122702
LEGION 1                
1 59625U 24081A   26161.23345448  .00003678  00000+0  19140-3 0  9992
2 59625  97.5017 239.1648 0010162  40.5261 319.6727 15.16618717116487
LEGION 2                
1 59626U 24081B   26161.26333917  .00002911  00000+0  15229-3 0  9997
2 59626  97.5017 239.2920 0011455   8.5082 351.6343 15.16598439116492
ALOS-4 (DAICHI-4)       
1 60182U 24123A   26161.25996245  .00001267  00000+0  17646-3 0  9999
2 60182  97.9242 258.5308 0001628  97.3979 262.7418 14.79472152104854
LEGION 3                
1 60452U 24146A   26161.21209483  .00004047  00000+0  22061-3 0  9997
2 60452  45.0015  67.9616 0007003 126.5549 233.5975 15.15986784100965
LEGION 4                
1 60453U 24146B   26161.28102979  .00002737  00000+0  15351-3 0  9995
2 60453  45.0003 159.5030 0014107 272.4112  87.5151 15.15982279 99821
SENTINEL-2C             
1 60989U 24157A   26161.17953461  .00000076  00000+0  45713-4 0  9999
2 60989  98.5691 236.0605 0001141  79.7368 280.3944 14.30815900 91989
IONOSFERA-M 1           
1 61735U 24199A   26161.30184770  .00000050  00000+0  41979-4 0  9991
2 61735  98.7182  34.5465 0001741 119.4750 240.6602 14.22753010126729
